COMMENT,ORIGINATOR,NORAD_CAT_ID,OBJECT_NAME,OBJECT_TYPE,CLASSIFICATION_TYPE,INTLDES,EPOCH,EPOCH_MICROSECONDS,MEAN_MOTION,ECCENTRICITY,INCLINATION,RA_OF_ASC_NODE,ARG_OF_PERICENTER,MEAN_ANOMALY,EPHEMERIS_TYPE,ELEMENT_SET_NO,REV_AT_EPOCH,BSTAR,MEAN_MOTION_DOT,MEAN_MOTION_DDOT,FILE,TLE_LINE0,TLE_LINE1,TLE_LINE2,OBJECT_ID,OBJECT_NUMBER,SEMIMAJOR_AXIS,PERIOD,APOGEE,PERIGEE,DECAYED,date
GENERATED VIA SPACETRACK.ORG API,18 SPCS,48899,SPACEBEE-110,PAYLOAD,U,21059W,2023/3/7 3:06,199424,15.25160951,0.0008849,97.5821,201.7445,266.5045,93.518,0,999,9383,0.0020338,0.00051278,0,3853485,0 SPACEBEE-110,1 48899U 21059W   23066.12966666  .00051278  00000-0  20338-2 0  9995,2 48899  97.5821 201.7445 0008849 266.5045  93.5180 15.25160951 93836,2021-059W,48899,6868.439,94.416,496.382,484.226,0,
GENERATED VIA SPACETRACK.ORG API,18 SPCS,48899,SPACEBEE-110,PAYLOAD,U,21059W,2023/3/7 14:08,641344,15.25214017,0.0008854,97.5821,202.2099,264.5815,95.4412,0,999,9390,0.002201,0.0005562,0,3854072,0 SPACEBEE-110,1 48899U 21059W   23066.58891946  .00055620  00000-0  22010-2 0  9997,2 48899  97.5821 202.2099 0008854 264.5815  95.4412 15.25214017 93906,2021-059W,48899,6868.28,94.413,496.226,484.064,0,
GENERATED VIA SPACETRACK.ORG API,18 SPCS,48899,SPACEBEE-110,PAYLOAD,U,21059W,2023/3/8 9:01,737728,15.2529267,0.0008757,97.5826,203.0077,261.3788,98.6457,0,999,9402,0.0017401,0.00043992,0,3854674,0 SPACEBEE-110,1 48899U 21059W   23067.37617752  .00043992  00000-0  17401-2 0  9993,2 48899  97.5826 203.0077 0008757 261.3788  98.6457 15.25292670 94021,2021-059W,48899,6868.044,94.408,495.923,483.894,0,
GENERATED VIA SPACETRACK.ORG API,18 SPCS,48899,SPACEBEE-110,PAYLOAD,U,21059W,2023/3/8 9:01,737728,15.2529267,0.0008757,97.5826,203.0077,261.3788,98.6457,0,999,9402,0.0017401,0.00043992,0,3855077,0 SPACEBEE-110,1 48899U 21059W   23067.37617752  .00043992  00000-0  17401-2 0  9993,2 48899  97.5826 203.0077 0008757 261.3788  98.6457 15.25292670 94021,2021-059W,48899,6868.044,94.408,495.923,483.894,0,
GENERATED VIA SPACETRACK.ORG API,18 SPCS,48899,SPACEBEE-110,PAYLOAD,U,21059W,2023/3/9 8:38,584480,15.2539656,0.0008744,97.5829,204.0048,258.0144,102.0113,0,999,9417,0.0020198,0.00051284,0,3855848,0 SPACEBEE-110,1 48899U 21059W   23068.36019195  .00051284  00000-0  20198-2 0  9990,2 48899  97.5829 204.0048 0008744 258.0144 102.0113 15.25396560 94176,2021-059W,48899,6867.732,94.402,495.602,483.592,0,
GENERATED VIA SPACETRACK.ORG API,18 SPCS,48899,SPACEBEE-110,PAYLOAD,U,21059W,2023/3/9 21:14,440832,15.25458353,0.0008774,97.5833,204.5371,256.8916,103.1342,0,999,9425,0.0021919,0.00055797,0,3855951,0 SPACEBEE-110,1 48899U 21059W   23068.88497038  .00055797  00000-0  21919-2 0  9998,2 48899  97.5833 204.5371 0008774 256.8916 103.1342 15.25458353 94255,2021-059W,48899,6867.546,94.398,495.437,483.386,0,
GENERATED VIA SPACETRACK.ORG API,18 SPCS,48899,SPACEBEE-110,PAYLOAD,U,21059W,2023/3/10 8:15,189696,15.25513807,0.0008833,97.5833,205.0021,254.9549,105.0711,0,999,9432,0.0022481,0.00057337,0,3856584,0 SPACEBEE-110,1 48899U 21059W   23069.34413414  .00057337  00000-0  22481-2 0  9993,2 48899  97.5833 205.0021 0008833 254.9549 105.0711 15.25513807 94325,2021-059W,48899,6867.38,94.394,495.311,483.179,0,
GENERATED VIA SPACETRACK.ORG API,18 SPCS,48899,SPACEBEE-110,PAYLOAD,U,21059W,2023/3/10 20:51,838016,15.25563207,0.0008829,97.5833,205.5346,253.8861,106.1404,0,999,9440,0.0019571,0.0004993,0,3856975,0 SPACEBEE-110,1 48899U 21059W   23069.86887544  .00049930  00000-0  19571-2 0  9995,2 48899  97.5833 205.5346 0008829 253.8861 106.1404 15.25563207 94409,2021-059W,48899,6867.232,94.391,495.16,483.034,0,
GENERATED VIA SPACETRACK.ORG API,18 SPCS,48899,SPACEBEE-110,PAYLOAD,U,21059W,2023/3/11 6:17,973952,15.25607465,0.0008871,97.5835,205.9332,252.1713,107.8557,0,999,9446,0.0021689,0.00055456,0,3857262,0 SPACEBEE-110,1 48899U 21059W   23070.26241868  .00055456  00000-0  21689-2 0  9997,2 48899  97.5835 205.9332 0008871 252.1713 107.8557 15.25607465 94463,2021-059W,48899,6867.099,94.389,495.056,482.872,0,
GENERATED VIA SPACETRACK.ORG API,18 SPCS,48899,SPACEBEE-110,PAYLOAD,U,21059W,2023/3/11 7:52,914528,15.25615005,0.0008876,97.5835,205.9996,251.9645,108.0625,0,999,9447,0.0021212,0.00054239,0,3857581,0 SPACEBEE-110,1 48899U 21059W   23070.32800827  .00054239  00000-0  21212-2 0  9990,2 48899  97.5835 205.9996 0008876 251.9645 108.0625 15.25615005 94474,2021-059W,48899,6867.076,94.388,495.037,482.846,0,
GENERATED VIA SPACETRACK.ORG API,18 SPCS,48899,SPACEBEE-110,PAYLOAD,U,21059W,2023/3/12 7:29,178880,15.25708972,0.0008852,97.5835,206.9973,249.533,110.4958,0,999,9462,0.0019022,0.00048732,0,3858178,0 SPACEBEE-110,1 48899U 21059W   23071.31181920  .00048732  00000-0  19022-2 0  9993,2 48899  97.5835 206.9973 0008852 249.5330 110.4958 15.25708972 94627,2021-059W,48899,6866.794,94.382,494.738,482.581,0,
GENERATED VIA SPACETRACK.ORG API,18 SPCS,48899,SPACEBEE-110,PAYLOAD,U,21059W,2023/3/12 7:29,178880,15.25708972,0.0008852,97.5835,206.9973,249.533,110.4958,0,999,9462,0.0019022,0.00048732,0,3858534,0 SPACEBEE-110,1 48899U 21059W   23071.31181920  .00048732  00000-0  19022-2 0  9993,2 48899  97.5835 206.9973 0008852 249.5330 110.4958 15.25708972 94627,2021-059W,48899,6866.794,94.382,494.738,482.581,0,
GENERATED VIA SPACETRACK.ORG API,18 SPCS,48899,SPACEBEE-110,PAYLOAD,U,21059W,2023/3/13 8:40,461952,15.2579865,0.0008799,97.5835,208.0614,245.7626,114.2692,0,999,9478,0.0015346,0.00039356,0,3859321,0 SPACEBEE-110,1 48899U 21059W   23072.36115118  .00039356  00000-0  15346-2 0  9992,2 48899  97.5835 208.0614 0008799 245.7626 114.2692 15.25798650 94784,2021-059W,48899,6866.525,94.377,494.432,482.348,0,
GENERATED VIA SPACETRACK.ORG API,18 SPCS,48899,SPACEBEE-110,PAYLOAD,U,21059W,2023/3/13 8:40,461952,15.2579865,0.0008799,97.5835,208.0614,245.7626,114.2692,0,999,9478,0.0015346,0.00039356,0,3859425,0 SPACEBEE-110,1 48899U 21059W   23072.36115118  .00039356  00000-0  15346-2 0  9992,2 48899  97.5835 208.0614 0008799 245.7626 114.2692 15.25798650 94784,2021-059W,48899,6866.525,94.377,494.432,482.348,0,
GENERATED VIA SPACETRACK.ORG API,18 SPCS,48899,SPACEBEE-110,PAYLOAD,U,21059W,2023/3/13 21:15,599008,15.25842869,0.0008818,97.5833,208.5932,243.8792,116.1539,0,999,9486,0.001499,0.00038488,0,3859631,0 SPACEBEE-110,1 48899U 21059W   23072.88579397  .00038488  00000-0  14990-2 0  9991,2 48899  97.5833 208.5932 0008818 243.8792 116.1539 15.25842869 94867,2021-059W,48899,6866.393,94.374,494.312,482.203,0,
GENERATED VIA SPACETRACK.ORG API,18 SPCS,48899,SPACEBEE-110,PAYLOAD,U,21059W,2023/3/14 14:34,149664,15.25905806,0.0008824,97.5827,209.3249,241.0991,118.9362,0,999,9497,0.0017869,0.00046028,0,3860373,0 SPACEBEE-110,1 48899U 21059W   23073.60715451  .00046028  00000-0  17869-2 0  9992,2 48899  97.5827 209.3249 0008824 241.0991 118.9362 15.25905806 94975,2021-059W,48899,6866.204,94.37,494.128,482.01,0,
GENERATED VIA SPACETRACK.ORG API,18 SPCS,48899,SPACEBEE-110,PAYLOAD,U,21059W,2023/3/14 16:08,979136,15.25912392,0.0008807,97.5826,209.3915,241.0498,118.9858,0,999,9498,0.001825,0.00047027,0,3860584,0 SPACEBEE-110,1 48899U 21059W   23073.67273124  .00047027  00000-0  18250-2 0  9990,2 48899  97.5826 209.3915 0008807 241.0498 118.9858 15.25912392 94986,2021-059W,48899,6866.184,94.37,494.096,482.002,0,
GENERATED VIA SPACETRACK.ORG API,18 SPCS,48899,SPACEBEE-110,PAYLOAD,U,21059W,2023/3/14 16:08,979136,15.25912392,0.0008807,97.5826,209.3915,241.0498,118.9858,0,999,9498,0.001825,0.00047027,0,3860643,0 SPACEBEE-110,1 48899U 21059W   23073.67273124  .00047027  00000-0  18250-2 0  9990,2 48899  97.5826 209.3915 0008807 241.0498 118.9858 15.25912392 94986,2021-059W,48899,6866.184,94.37,494.096,482.002,0,
GENERATED VIA SPACETRACK.ORG API,18 SPCS,48899,SPACEBEE-110,PAYLOAD,U,21059W,2023/3/15 14:10,877920,15.26007817,0.0008811,97.5827,210.3227,237.8657,122.1726,0,999,9512,0.0020504,0.00053038,0,3861350,0 SPACEBEE-110,1 48899U 21059W   23074.59077405  .00053038  00000-0  20504-2 0  9990,2 48899  97.5827 210.3227 0008811 237.8657 122.1726 15.26007817 95126,2021-059W,48899,6865.898,94.364,493.812,481.713,0,
GENERATED VIA SPACETRACK.ORG API,18 SPCS,48899,SPACEBEE-110,PAYLOAD,U,21059W,2023/3/15 20:28,540384,15.26030115,0.0008791,97.5827,210.5888,237.0561,122.9832,0,999,9516,0.0017714,0.00045797,0,3861562,0 SPACEBEE-110,1 48899U 21059W   23074.85306181  .00045797  00000-0  17714-2 0  9997,2 48899  97.5827 210.5888 0008791 237.0561 122.9832 15.26030115 95161,2021-059W,48899,6865.831,94.362,493.732,481.66,0,
GENERATED VIA SPACETRACK.ORG API,18 SPCS,48899,SPACEBEE-110,PAYLOAD,U,21059W,2023/3/15 22:02,889472,15.26036863,0.0008784,97.5828,210.6554,236.9181,123.1214,0,999,9517,0.0017789,0.00046002,0,3861599,0 SPACEBEE-110,1 48899U 21059W   23074.91863298  .00046002  00000-0  17789-2 0  9993,2 48899  97.5828 210.6554 0008784 236.9181 123.1214 15.26036863 95175,2021-059W,48899,6865.811,94.362,493.707,481.645,0,
GENERATED VIA SPACETRACK.ORG API,18 SPCS,48899,SPACEBEE-110,PAYLOAD,U,21059W,2023/3/16 9:03,653984,15.26086643,0.0008752,97.5829,211.1212,235.6388,124.4022,0,999,9524,0.0019499,0.00050537,0,3862295,0 SPACEBEE-110,1 48899U 21059W   23075.37762331  .00050537  00000-0  19499-2 0  9998,2 48899  97.5829 211.1212 0008752 235.6388 124.4022 15.26086643 95243,2021-059W,48899,6865.661,94.359,493.535,481.518,0,
GENERATED VIA SPACETRACK.ORG API,18 SPCS,48899,SPACEBEE-110,PAYLOAD,U,21059W,2023/3/16 20:04,485376,15.26116319,0.0008729,97.583,211.587,234.0733,125.9696,0,999,9531,0.0013954,0.00036107,0,3862592,0 SPACEBEE-110,1 48899U 21059W   23075.83660284  .00036107  00000-0  13954-2 0  9990,2 48899  97.5830 211.5870 0008729 234.0733 125.9696 15.26116319 95315,2021-059W,48899,6865.572,94.357,493.43,481.444,0,
